{
  "type": "FeatureCollection",
  "features": [
    {
      "type": "Feature",
      "properties": {
        "norad_id": 41890,
        "name": "CYGFM07",
        "group": "weather",
        "lat": 30.86580072894163,
        "lon": 177.60758693886237,
        "alt_km": 407.991084148136,
        "timestamp": "2025-12-07T09:35:09.435176+00:00",
        "meta_object_name": "CYGFM07",
        "meta_object_id": "2016-078G",
        "meta_epoch": "2025-12-06T22:15:49.226112",
        "meta_mean_motion": 15.49652636,
        "meta_eccentricity": 0.0009249,
        "meta_inclination": 34.9482,
        "meta_ra_of_asc_node": 59.5503,
        "meta_arg_of_pericenter": 163.8179,
        "meta_mean_anomaly": 196.284,
        "meta_ephemeris_type": 0,
        "meta_classification_type": "U",
        "meta_norad_cat_id": 41890,
        "meta_element_set_no": 999,
        "meta_rev_at_epoch": 49905,
        "meta_bstar": 0.00051604337,
        "meta_mean_motion_dot": 0.00029579,
        "meta_mean_motion_ddot": 0,
        "tle_line1": "1 41890U 16078G   25340.92765308  .00029579  00000+0  51604-3 0  9998",
        "tle_line2": "2 41890  34.9482  59.5503 0009249 163.8179 196.2840 15.49652636499054"
      },
      "geometry": {
        "type": "Point",
        "coordinates": [
          177.60758693886237,
          30.86580072894163
        ]
      }
    },
    {
      "type": "Feature",
      "properties": {
        "norad_id": 41891,
        "name": "CYGFM03",
        "group": "weather",
        "lat": -24.737736029360736,
        "lon": 17.0837956474851,
        "alt_km": 424.7339115558725,
        "timestamp": "2025-12-07T09:35:09.435186+00:00",
        "meta_object_name": "CYGFM03",
        "meta_object_id": "2016-078H",
        "meta_epoch": "2025-12-06T15:14:01.040064",
        "meta_mean_motion": 15.495391,
        "meta_eccentricity": 0.0008508,
        "meta_inclination": 34.9433,
        "meta_ra_of_asc_node": 63.3845,
        "meta_arg_of_pericenter": 147.6188,
        "meta_mean_anomaly": 212.5057,
        "meta_ephemeris_type": 0,
        "meta_classification_type": "U",
        "meta_norad_cat_id": 41891,
        "meta_element_set_no": 999,
        "meta_rev_at_epoch": 49898,
        "meta_bstar": 0.00056634029,
        "meta_mean_motion_dot": 0.00032339,
        "meta_mean_motion_ddot": 0,
        "tle_line1": "1 41891U 16078H   25340.63473426  .00032339  00000+0  56634-3 0  9990",
        "tle_line2": "2 41891  34.9433  63.3845 0008508 147.6188 212.5057 15.49539100498983"
      },
      "geometry": {
        "type": "Point",
        "coordinates": [
          17.0837956474851,
          -24.737736029360736
        ]
      }
    },
    {
      "type": "Feature",
      "properties": {
        "norad_id": 43010,
        "name": "FENGYUN 3D",
        "group": "weather",
        "lat": 80.96817704660447,
        "lon": -137.0974326577042,
        "alt_km": 819.1586131362374,
        "timestamp": "2025-12-07T09:35:09.435198+00:00",
        "meta_object_name": "FENGYUN 3D",
        "meta_object_id": "2017-072A",
        "meta_epoch": "2025-12-06T21:19:37.955136",
        "meta_mean_motion": 14.19681264,
        "meta_eccentricity": 7.409e-05,
        "meta_inclination": 98.9886,
        "meta_ra_of_asc_node": 307.1115,
        "meta_arg_of_pericenter": 201.3715,
        "meta_mean_anomaly": 158.7429,
        "meta_ephemeris_type": 0,
        "meta_classification_type": "U",
        "meta_norad_cat_id": 43010,
        "meta_element_set_no": 999,
        "meta_rev_at_epoch": 41770,
        "meta_bstar": 0.00012145711,
        "meta_mean_motion_dot": 2.11e-06,
        "meta_mean_motion_ddot": 0,
        "tle_line1": "1 43010U 17072A   25340.88863374  .00000211  00000+0  12146-3 0  9996",
        "tle_line2": "2 43010  98.9886 307.1115 0000740 201.3715 158.7429 14.19681264417703"
      },
      "geometry": {
        "type": "Point",
        "coordinates": [
          -137.0974326577042,
          80.96817704660447
        ]
      }
    },
    {
      "type": "Feature",
      "properties": {
        "norad_id": 43013,
        "name": "NOAA 20 (JPSS-1)",
        "group": "weather",
        "lat": -63.34589853921157,
        "lon": 79.86697820616311,
        "alt_km": 835.4525248208356,
        "timestamp": "2025-12-07T09:35:09.435209+00:00",
        "meta_object_name": "NOAA 20 (JPSS-1)",
        "meta_object_id": "2017-073A",
        "meta_epoch": "2025-12-06T22:17:13.145568",
        "meta_mean_motion": 14.19523249,
        "meta_eccentricity": 0.00021096,
        "meta_inclination": 98.759,
        "meta_ra_of_asc_node": 277.2892,
        "meta_arg_of_pericenter": 95.4546,
        "meta_mean_anomaly": 264.687,
        "meta_ephemeris_type": 0,
        "meta_classification_type": "U",
        "meta_norad_cat_id": 43013,
        "meta_element_set_no": 999,
        "meta_rev_at_epoch": 41719,
        "meta_bstar": 0.00010705697,
        "meta_mean_motion_dot": 1.82e-06,
        "meta_mean_motion_ddot": 0,
        "tle_line1": "1 43013U 17073A   25340.92862437  .00000182  00000+0  10706-3 0  9991",
        "tle_line2": "2 43013  98.7590 277.2892 0002109  95.4546 264.6870 14.19523249417198"
      },
      "geometry": {
        "type": "Point",
        "coordinates": [
          79.86697820616311,
          -63.34589853921157
        ]
      }
    },
    {
      "type": "Feature",
      "properties": {
        "norad_id": 43226,
        "name": "GOES 17",
        "group": "weather",
        "lat": 0.3065748787871299,
        "lon": 130.68032912596416,
        "alt_km": 35798.10439235251,
        "timestamp": "2025-12-07T09:35:09.435222+00:00",
        "meta_object_name": "GOES 17",
        "meta_object_id": "2018-022A",
        "meta_epoch": "2025-12-06T21:48:02.437920",
        "meta_mean_motion": 1.0027089,
        "meta_eccentricity": 0.00035144,
        "meta_inclination": 0.4441,
        "meta_ra_of_asc_node": 89.2288,
        "meta_arg_of_pericenter": 183.9619,
        "meta_mean_anomaly": 40.2612,
        "meta_ephemeris_type": 0,
        "meta_classification_type": "U",
        "meta_norad_cat_id": 43226,
        "meta_element_set_no": 999,
        "meta_rev_at_epoch": 2849,
        "meta_bstar": 0,
        "meta_mean_motion_dot": -1.77e-06,
        "meta_mean_motion_ddot": 0,
        "tle_line1": "1 43226U 18022A   25340.90836155 -.00000177  00000+0  00000+0 0  9995",
        "tle_line2": "2 43226   0.4441  89.2288 0003514 183.9619  40.2612  1.00270890 28494"
      },
      "geometry": {
        "type": "Point",
        "coordinates": [
          130.68032912596416,
          0.3065748787871299
        ]
      }
    },
    {
      "type": "Feature",
      "properties": {
        "norad_id": 43491,
        "name": "FENGYUN 2H",
        "group": "weather",
        "lat": -1.5858796172187584,
        "lon": -60.429098251199534,
        "alt_km": 35778.98003567428,
        "timestamp": "2025-12-07T09:35:09.435235+00:00",
        "meta_object_name": "FENGYUN 2H",
        "meta_object_id": "2018-050A",
        "meta_epoch": "2025-12-06T22:25:51.770208",
        "meta_mean_motion": 1.00271276,
        "meta_eccentricity": 0.00029164,
        "meta_inclination": 2.5352,
        "meta_ra_of_asc_node": 81.3937,
        "meta_arg_of_pericenter": 165.2651,
        "meta_mean_anomaly": 245.1354,
        "meta_ephemeris_type": 0,
        "meta_classification_type": "U",
        "meta_norad_cat_id": 43491,
        "meta_element_set_no": 999,
        "meta_rev_at_epoch": 2751,
        "meta_bstar": 0,
        "meta_mean_motion_dot": -1.25e-06,
        "meta_mean_motion_ddot": 0,
        "tle_line1": "1 43491U 18050A   25340.93462697 -.00000125  00000+0  00000+0 0  9992",
        "tle_line2": "2 43491   2.5352  81.3937 0002916 165.2651 245.1354  1.00271276 27510"
      },
      "geometry": {
        "type": "Point",
        "coordinates": [
          -60.429098251199534,
          -1.5858796172187584
        ]
      }
    },
    {
      "type": "Feature",
      "properties": {
        "norad_id": 43689,
        "name": "METOP-C",
        "group": "weather",
        "lat": -12.199161632318699,
        "lon": 41.146308156556046,
        "alt_km": 824.0994467384617,
        "timestamp": "2025-12-07T09:35:09.435247+00:00",
        "meta_object_name": "METOP-C",
        "meta_object_id": "2018-087A",
        "meta_epoch": "2025-12-06T21:49:07.543776",
        "meta_mean_motion": 14.21508446,
        "meta_eccentricity": 0.00015787,
        "meta_inclination": 98.6937,
        "meta_ra_of_asc_node": 38.7679,
        "meta_arg_of_pericenter": 52.1262,
        "meta_mean_anomaly": 308.0058,
        "meta_ephemeris_type": 0,
        "meta_classification_type": "U",
        "meta_norad_cat_id": 43689,
        "meta_element_set_no": 999,
        "meta_rev_at_epoch": 36751,
        "meta_bstar": 0.00014605535,
        "meta_mean_motion_dot": 2.76e-06,
        "meta_mean_motion_ddot": 0,
        "tle_line1": "1 43689U 18087A   25340.90911509  .00000276  00000+0  14606-3 0  9996",
        "tle_line2": "2 43689  98.6937  38.7679 0001578  52.1262 308.0058 14.21508446367514"
      },
      "geometry": {
        "type": "Point",
        "coordinates": [
          41.146308156556046,
          -12.199161632318699
        ]
      }
    }
  ]
}